NORAD_CAT_ID,OBJECT_NAME,OBJECT_TYPE,EPOCH,MEAN_MOTION,ECCENTRICITY,INCLINATION,RA_OF_ASC_NODE,ARG_OF_PERICENTER,MEAN_ANOMALY,BSTAR,MEAN_MOTION_DOT,MEAN_MOTION_DDOT,TLE_LINE0,TLE_LINE1,TLE_LINE2,SEMIMAJOR_AXIS,PERIOD,APOGEE,PERIGEE,DECAYED
52547.0,STARLINK-3869,PAYLOAD,2023-07-24 22:57:08,15.08844513,0.0001245,53.2166,118.043,83.2053,276.9081,8.4954e-05,1.065e-05,0.0,0 STARLINK-3869,1 52547U 22051Q   23205.95635176  .00001065  00000-0  84954-4 0  9993,2 52547  53.2166 118.0430 0001245  83.2053 276.9081 15.08844513 66631,6917.867,95.437,540.593,538.87,0.0
52547.0,STARLINK-3869,PAYLOAD,2023-07-26 03:34:05,15.08847958,0.0001519,53.216,112.6887,100.4617,259.6546,0.0002251,3.297e-05,0.0,0 STARLINK-3869,1 52547U 22051Q   23207.14867006  .00003297  00000-0  22510-3 0  9993,2 52547  53.2160 112.6887 0001519 100.4617 259.6546 15.08847958 66813,6917.856,95.437,540.772,538.67,0.0
52547.0,STARLINK-3869,PAYLOAD,2023-07-27 05:00:14,15.08859703,0.0001306,53.2169,107.9306,83.7266,276.3875,0.00030898,4.636e-05,0.0,0 STARLINK-3869,1 52547U 22051Q   23208.20850049  .00004636  00000-0  30898-3 0  9996,2 52547  53.2169 107.9306 0001306  83.7266 276.3875 15.08859703 67040,6917.82,95.436,540.589,538.782,0.0
52547.0,STARLINK-3869,PAYLOAD,2023-07-28 01:40:16,15.08836073,0.000112,53.2165,104.0664,97.1322,262.9798,-7.194e-05,-1.432e-05,0.0,0 STARLINK-3869,1 52547U 22051Q   23209.06963271 -.00001432  00000-0 -71940-4 0  9990,2 52547  53.2165 104.0664 0001120  97.1322 262.9798 15.08836073 67171,6917.892,95.438,540.532,538.983,0.0
52547.0,STARLINK-3869,PAYLOAD,2023-07-28 04:51:02,15.08838573,0.0001134,53.2168,103.4713,98.299,261.8131,-1.8644e-05,-5.85e-06,0.0,0 STARLINK-3869,1 52547U 22051Q   23209.20211188 -.00000585  00000-0 -18644-4 0  9999,2 52547  53.2168 103.4713 0001134  98.2990 261.8131 15.08838573 67121,6917.885,95.438,540.534,538.965,0.0
52547.0,STARLINK-3869,PAYLOAD,2023-07-29 01:31:03,15.08841412,0.0001008,53.217,99.6063,104.2655,255.8449,0.00011401,1.527e-05,0.0,0 STARLINK-3869,1 52547U 22051Q   23210.06323400  .00001527  00000-0  11401-3 0  9994,2 52547  53.2170  99.6063 0001008 104.2655 255.8449 15.08841412 67327,6917.876,95.437,540.438,539.044,0.0
52547.0,STARLINK-3869,PAYLOAD,2023-07-31 01:12:37,15.08846857,9.63e-05,53.2167,90.6855,91.0396,269.0707,0.00013237,1.82e-05,0.0,0 STARLINK-3869,1 52547U 22051Q   23212.05043390  .00001820  00000-0  13237-3 0  9997,2 52547  53.2167  90.6855 0000963  91.0396 269.0707 15.08846857 67622,6917.859,95.437,540.391,539.058,0.0
52547.0,STARLINK-3869,PAYLOAD,2023-07-31 09:09:33,15.08835552,0.0001279,53.217,89.1996,81.3932,278.7205,-8.2184e-06,-4.19e-06,0.0,0 STARLINK-3869,1 52547U 22051Q   23212.38164126 -.00000419  00000-0 -82184-5 0  9998,2 52547  53.2170  89.1996 0001279  81.3932 278.7205 15.08835552 67679,6917.894,95.438,540.644,538.874,0.0
52547.0,STARLINK-3869,PAYLOAD,2023-08-01 18:32:39,15.08839338,9.53e-05,53.2166,82.9541,80.456,279.6539,7.1117e-05,8.44e-06,0.0,0 STARLINK-3869,1 52547U 22051Q   23213.77268322  .00000844  00000-0  71117-4 0  9998,2 52547  53.2166  82.9541 0000953  80.4560 279.6539 15.08839338 67885,6917.882,95.438,540.407,539.088,0.0
52547.0,STARLINK-3869,PAYLOAD,2023-08-02 23:09:35,15.08857326,0.0001097,53.2163,77.6016,80.1723,279.9393,0.0004104,6.253e-05,0.0,0 STARLINK-3869,1 52547U 22051Q   23214.96499625  .00006253  00000-0  41040-3 0  9993,2 52547  53.2163  77.6016 0001097  80.1723 279.9393 15.08857326 68067,6917.827,95.436,540.451,538.934,0.0
52547.0,STARLINK-3869,PAYLOAD,2023-08-03 18:14:13,15.08840737,8.27e-05,53.2154,74.0334,89.9377,270.171,1.8337e-05,4e-08,0.0,0 STARLINK-3869,1 52547U 22051Q   23215.75988058  .00000004  00000-0  18337-4 0  9996,2 52547  53.2154  74.0334 0000827  89.9377 270.1710 15.08840737 68180,6917.878,95.438,540.315,539.171,0.0
52547.0,STARLINK-3869,PAYLOAD,2023-08-05 00:26:33,15.08849112,9.55e-05,53.2169,68.3808,100.8966,259.2133,0.00023334,3.429e-05,0.0,0 STARLINK-3869,1 52547U 22051Q   23217.01843824  .00003429  00000-0  23334-3 0  9994,2 52547  53.2169  68.3808 0000955 100.8966 259.2133 15.08849112 68371,6917.853,95.437,540.378,539.057,0.0
52547.0,STARLINK-3869,PAYLOAD,2023-08-05 17:55:47,15.08844646,0.000107,53.2178,65.1126,107.7342,252.3767,0.00017994,2.577e-05,0.0,0 STARLINK-3869,1 52547U 22051Q   23217.74707955  .00002577  00000-0  17994-3 0  9996,2 52547  53.2178  65.1126 0001070 107.7342 252.3767 15.08844646 68488,6917.866,95.437,540.471,538.991,0.0
52547.0,STARLINK-3869,PAYLOAD,2023-08-06 01:52:42,15.08856015,0.0001062,53.2173,63.6248,103.463,256.6481,0.00032393,4.873e-05,0.0,0 STARLINK-3869,1 52547U 22051Q   23218.07827241  .00004873  00000-0  32393-3 0  9995,2 52547  53.2173  63.6248 0001062 103.4630 256.6481 15.08856015 68534,6917.831,95.437,540.431,538.962,0.0
52547.0,STARLINK-3869,PAYLOAD,2023-08-06 06:38:53,15.08818132,0.0001166,53.2176,62.7312,94.5364,265.5761,-0.00040224,-6.68e-05,0.0,0 STARLINK-3869,1 52547U 22051Q   23218.27700804 -.00006680  00000-0 -40224-3 0  9994,2 52547  53.2176  62.7312 0001166  94.5364 265.5761 15.08818132 68569,6917.947,95.439,540.619,539.006,0.0
52547.0,STARLINK-3869,PAYLOAD,2023-08-06 22:32:45,15.08824842,8.93e-05,53.2172,59.759,101.2437,258.8655,-0.0001749,-3.069e-05,0.0,0 STARLINK-3869,1 52547U 22051Q   23218.93941198 -.00003069  00000-0 -17490-3 0  9997,2 52547  53.2172  59.7590 0000893 101.2437 258.8655 15.08824842 68665,6917.927,95.439,540.409,539.174,0.0
52547.0,STARLINK-3869,PAYLOAD,2023-08-07 19:12:46,15.08844666,7.74e-05,53.2163,55.8935,110.651,249.4565,0.0010671,0.00016738,0.0,0 STARLINK-3869,1 52547U 22051Q   23219.80053733  .00016738  00000-0  10671-2 0  9991,2 52547  53.2163  55.8935 0000774 110.6510 249.4565 15.08844666 68795,6917.866,95.437,540.267,539.196,0.0
52547.0,STARLINK-3869,PAYLOAD,2023-08-08 19:03:32,15.08866377,6.04e-05,53.2165,51.4328,104.5487,255.5572,0.0010329,0.00016201,0.0,0 STARLINK-3869,1 52547U 22051Q   23220.79413012  .00016201  00000-0  10329-2 0  9996,2 52547  53.2165  51.4328 0000604 104.5487 255.5572 15.08866377 68948,6917.8,95.436,540.083,539.247,0.0
52547.0,STARLINK-3869,PAYLOAD,2023-08-09 06:11:14,15.08851272,0.0001402,53.2163,49.3512,85.6217,274.4935,0.00044229,6.76e-05,0.0,0 STARLINK-3869,1 52547U 22051Q   23221.25781205  .00006760  00000-0  44229-3 0  9996,2 52547  53.2163  49.3512 0001402  85.6217 274.4935 15.08851272 69014,6917.846,95.437,540.681,538.741,0.0
52547.0,STARLINK-3869,PAYLOAD,2023-08-09 22:05:06,15.08845433,8.88e-05,53.2173,46.3774,85.5721,274.5372,0.00035796,5.415e-05,0.0,0 STARLINK-3869,1 52547U 22051Q   23221.92021013  .00005415  00000-0  35796-3 0  9999,2 52547  53.2173  46.3774 0000888  85.5721 274.5372 15.08845433 69117,6917.864,95.437,540.343,539.114,0.0
52547.0,STARLINK-3869,PAYLOAD,2023-08-10 15:34:20,15.08846836,8.59e-05,53.2157,43.1066,74.2267,285.882,0.00022385,3.277e-05,0.0,0 STARLINK-3869,1 52547U 22051Q   23222.64885004  .00003277  00000-0  22385-3 0  9991,2 52547  53.2157  43.1066 0000859  74.2267 285.8820 15.08846836 69229,6917.859,95.437,540.319,539.13,0.0
52547.0,STARLINK-3869,PAYLOAD,2023-08-11 18:35:53,15.08847853,7.77e-05,53.2169,38.0507,71.7605,288.3472,0.00027157,4.038e-05,0.0,0 STARLINK-3869,1 52547U 22051Q   23223.77492879  .00004038  00000-0  27157-3 0  9998,2 52547  53.2169  38.0507 0000777  71.7605 288.3472 15.08847853 69391,6917.856,95.437,540.259,539.184,0.0
52547.0,STARLINK-3869,PAYLOAD,2023-08-12 10:29:45,15.08838336,5.16e-05,53.218,35.0796,95.0622,265.0429,1.7101e-05,-1.5e-07,0.0,0 STARLINK-3869,1 52547U 22051Q   23224.43733199 -.00000015  00000-0  17101-4 0  9996,2 52547  53.2180  35.0796 0000516  95.0622 265.0429 15.08838336 69491,6917.885,95.438,540.107,539.394,0.0
52547.0,STARLINK-3869,PAYLOAD,2023-08-12 18:26:40,15.08851629,9.59e-05,53.216,33.5907,73.5229,286.5868,0.00024645,3.638e-05,0.0,0 STARLINK-3869,1 52547U 22051Q   23224.76852557  .00003638  00000-0  24645-3 0  9995,2 52547  53.2160  33.5907 0000959  73.5229 286.5868 15.08851629 69542,6917.845,95.437,540.373,539.046,0.0
52547.0,STARLINK-3869,PAYLOAD,2023-08-13 11:55:55,15.08836078,5.59e-05,53.2179,30.3196,63.0305,297.0744,-1.8934e-05,-5.89e-06,0.0,0 STARLINK-3869,1 52547U 22051Q   23225.49717056 -.00000589  00000-0 -18934-4 0  9999,2 52547  53.2179  30.3196 0000559  63.0305 297.0744 15.08836078 69655,6917.892,95.438,540.144,539.371,0.0
52547.0,STARLINK-3869,PAYLOAD,2023-08-13 21:28:14,15.08847574,6.49e-05,53.2174,28.5359,73.6166,286.4898,0.00048542,7.448e-05,0.0,0 STARLINK-3869,1 52547U 22051Q   23225.89460888  .00007448  00000-0  48542-3 0  9997,2 52547  53.2174  28.5359 0000649  73.6166 286.4898 15.08847574 69714,6917.857,95.437,540.171,539.273,0.0
52547.0,STARLINK-3869,PAYLOAD,2023-08-14 03:49:46,15.08841115,7.72e-05,53.2175,27.3465,83.5909,276.5171,0.00044902,6.866e-05,0.0,0 STARLINK-3869,1 52547U 22051Q   23226.15957155  .00006866  00000-0  44902-3 0  9994,2 52547  53.2175  27.3465 0000772  83.5909 276.5171 15.08841115 69755,6917.877,95.437,540.276,539.208,0.0
52547.0,STARLINK-3869,PAYLOAD,2023-08-15 03:40:33,15.08832065,9.55e-05,53.2184,22.8827,75.5914,284.5184,-0.00012227,-2.233e-05,0.0,0 STARLINK-3869,1 52547U 22051Q   23227.15317051 -.00002233  00000-0 -12227-3 0  9991,2 52547  53.2184  22.8827 0000955  75.5914 284.5184 15.08832065 69901,6917.905,95.438,540.43,539.109,0.0
52547.0,STARLINK-3869,PAYLOAD,2023-08-16 09:52:53,15.08841206,9.85e-05,53.2142,17.239,64.8332,295.2762,0.00020236,2.934e-05,0.0,0 STARLINK-3869,1 52547U 22051Q   23228.41173492  .00002934  00000-0  20236-3 0  9995,2 52547  53.2142  17.2390 0000985  64.8332 295.2762 15.08841206 70096,6917.877,95.437,540.423,539.06,0.0
52547.0,STARLINK-3869,PAYLOAD,2023-08-17 16:05:13,15.08847596,9.09e-05,53.2175,11.5864,77.4198,282.6895,0.00021997,3.216e-05,0.0,0 STARLINK-3869,1 52547U 22051Q   23229.67029303  .00003216  00000-0  21997-3 0  9994,2 52547  53.2175  11.5864 0000909  77.4198 282.6895 15.08847596 70287,6917.857,95.437,540.351,539.093,0.0
